# From MPC106342
C/1995 O1 (Hale-Bopp),e,89.0587,283.2148,130.4997,178.4701,0.0004134,0.99495388,0.0000,03/29.7433/1997,2000,g -2.0,4.0
# From MPEC 2021-J28
C/2010 U3 (Boattini),e,55.5282,43.0216,88.0622,2286,0.0000090,0.99630562,0.0000,02/25.6138/2019,2000,g  1.0,4.0
# From MPEC 2021-J28
C/2011 KP36 (Spacewatch),e,18.9860,173.2794,180.7068,39.00547,0.0040459,0.87486041,7.3954,05/30.0/2021,2000,g  4.5,4.0
# From MPEC 2021-J28
C/2014 B1 (Schwartz),e,28.4094,161.4184,345.7377,6069,0.0000021,0.99842608,0.0000,09/08.0677/2017,2000,g  4.0,4.0
# From MPEC 2021-J28
C/2014 OE4 (PANSTARRS),h,12/12.9777/2016,81.3007,240.4218,65.8905,1.003167,6.249644,2000,11.0,2.0
# From MPEC 2021-J28
C/2015 XY1 (Lemmon),h,04/27.2073/2018,148.8537,281.6154,196.2020,1.002105,7.923100,2000,5.5,4.0
# From MPEC 2021-J28
C/2016 Q2 (PANSTARRS),h,05/11.8887/2021,109.3882,322.2957,84.5286,1.000716,7.081934,2000,6.0,4.0
# From MPEC 2021-J28
C/2017 K2 (PANSTARRS),h,12/19.7547/2022,87.5522,88.2452,236.1878,1.000560,1.797598,2000,1.5,4.0
# From MPEC 2021-J28
C/2017 M4 (ATLAS),h,01/17.9318/2019,105.6486,65.8902,167.6044,1.001346,3.253351,2000,6.0,4.0
# From MPEC 2021-J28
C/2017 T2 (PANSTARRS),e,57.2258,64.3769,92.9997,2792,0.0000067,0.99942138,0.0000,05/04.9207/2020,2000,g  5.0,4.0
# From MPEC 2021-J28
C/2017 U7 (PANSTARRS),h,09/14.1520/2019,142.5908,276.2446,326.3166,1.000509,6.423369,2000,8.3,2.0
# From MPEC 2021-J28
C/2017 Y2 (PANSTARRS),h,11/04.7737/2020,128.4115,65.9943,147.8957,1.000750,4.632274,2000,15.0,4.0
# From MPEC 2021-J28
C/2018 B1 (Lemmon),h,03/29.2408/2018,162.4202,133.1907,68.3165,1.000512,5.117602,2000,9.0,4.0
# From MPEC 2021-J28
C/2018 DO4 (Lemmon),e,160.4683,251.2389,176.1426,25.70009,0.0075649,0.90621484,4.9237,05/30.0/2021,2000,g 11.0,4.0
# From MPEC 2021-J28
C/2018 F4 (PANSTARRS),h,12/04.1035/2019,78.0910,26.5146,263.2295,1.001194,3.440719,2000,11.0,6.0
# From MPEC 2021-J28
C/2018 N2 (ASASSN),h,11/10.9851/2019,77.5308,25.2376,24.4092,1.000165,3.124953,2000,6.0,4.0
# From MPEC 2021-J28
C/2018 U1 (Lemmon),h,11/02.9523/2021,108.2966,75.4806,180.4477,1.001284,4.993110,2000,5.0,4.0
# From MPEC 2021-J28
C/2019 C1 (ATLAS),e,36.0294,212.3867,319.1794,726.3468,0.0000503,0.99093958,0.0000,05/05.4504/2020,2000,g 10.0,4.0
# From MPEC 2021-J28
C/2019 D1 (Flewelling),e,34.0713,231.7119,70.5434,142.1552,0.0005815,0.98888906,0.0000,05/11.8661/2019,2000,g 13.0,4.0
# From MPEC 2021-J28
C/2019 F1 (ATLAS-Africano),h,06/22.8516/2021,54.1749,38.7250,251.1287,1.003674,3.595701,2000,5.5,4.0
# From MPEC 2021-J28
C/2019 K4 (Ye),e,105.3004,180.1580,139.7763,1428,0.0000183,0.99841684,0.0000,06/16.2300/2019,2000,g 12.5,4.0
# From MPEC 2021-J28
C/2019 K7 (Smith),e,103.5421,307.9294,27.3211,63639,0.0000001,0.99992967,0.0000,06/17.0480/2020,2000,g  6.0,4.0
# From NK 1615
P/1996 R2 (Lagerkvist),e,2.6004,40.0230,333.3227,3.775020,0.1343771,0.31419052,112.6330,05/30.0/2021,2000,g 11.5,4.0
# From MPC 30063
P/1997 B1 (Kobayashi),e,12.3395,328.8820,183.3395,8.574123,0.0392572,0.76022067,348.1144,05/30.0/2021,2000,g 15.0,2.0
# From MPC 75703
P/1998 VS24 (LINEAR),e,5.0260,159.0345,244.6314,4.528460,0.1022771,0.24224647,125.5818,05/30.0/2021,2000,g 13.0,2.0
# From NK 731
P/1999 RO28 (LONEOS),e,7.5672,137.8853,231.2647,3.426727,0.1553763,0.67220624,109.3489,05/30.0/2021,2000,g 20.0,2.0
# From MPC 75704
P/1999 XN120 (Catalina),e,5.0296,285.2962,161.8408,4.179031,0.1153694,0.21023587,167.3023,05/30.0/2021,2000,g 13.5,2.0
# From NK 744
P/2000 R2 (LINEAR),e,11.6859,160.2886,176.5372,3.466603,0.1527031,0.53160226,108.8001,05/30.0/2021,2000,g 18.0,4.0
# From MPC 43019
P/2001 H5 (NEAT),e,8.3669,328.6835,224.8506,6.097795,0.0654553,0.59845270,134.2256,05/30.0/2021,2000,g 12.0,4.0
# From MPC 75704
P/2001 Q6 (NEAT),e,56.9077,22.1527,42.9331,7.953105,0.0439439,0.82294974,315.8436,05/30.0/2021,2000,g 13.5,4.0
# From MPC 47727
P/2002 EJ57 (LINEAR),e,4.9762,330.3255,167.3612,6.470910,0.0598764,0.59246493,64.4829,05/30.0/2021,2000,g 12.5,4.0
# From MPC109588
P/2002 T6 (NEAT-LINEAR),e,10.8362,206.2963,219.6587,7.682049,0.0462901,0.56059659,306.7906,05/30.0/2021,2000,g 10.5,4.0
# From MPC 75007
C/2002 VQ94 (LINEAR),e,70.6032,35.0488,100.1294,185.2010,0.0003911,0.96311868,2.1906,05/30.0/2021,2000,g  9.5,2.0
# From MPC 50354
P/2003 F2 (NEAT),e,11.6055,359.0391,192.0687,6.497985,0.0595026,0.54232299,33.5814,05/30.0/2021,2000,g 16.5,2.0
# From MPC 50139
P/2003 QX29 (NEAT),e,11.3900,264.5710,37.4802,8.028220,0.0433287,0.47299208,293.7814,05/30.0/2021,2000,g  8.5,4.0
# From MPC105235
P/2003 T12 (SOHO),e,11.0190,174.5757,219.7585,2.586003,0.2370067,0.76973721,91.9846,05/30.0/2021,2000,g 17.0,4.0
# From MPC 82312
P/2004 A1 (LONEOS),e,10.5516,124.8476,21.3175,7.960156,0.0438856,0.30932855,269.4790,05/30.0/2021,2000,g  6.5,4.0
# From MPC 54558
P/2004 DO29 (Spacewatch-LINEAR),e,14.5322,147.3736,40.6773,7.285252,0.0501230,0.44117097,304.7843,05/30.0/2021,2000,g 13.5,2.0
# From MPC 54823
P/2004 FY140 (LINEAR),e,2.1348,326.7620,242.4048,4.903080,0.0907822,0.16830097,194.0620,05/30.0/2021,2000,g 12.5,2.0
# From MPC 53304
P/2004 R3 (LINEAR-NEAT),e,12.8091,305.4697,38.0838,4.794373,0.0938872,0.26021920,349.0195,05/30.0/2021,2000,g 14.5,4.0
# From MPC 55521
P/2004 V3 (Siding Spring),e,50.4394,356.1226,322.3467,7.141023,0.0516492,0.44633368,313.1975,05/30.0/2021,2000,g 11.5,4.0
# From MPC 75705
P/2004 V5 (LINEAR-Hill),e,19.3424,47.7822,87.7138,7.979192,0.0437286,0.44360245,260.6681,05/30.0/2021,2000,g  8.0,4.0
# From MPC 54164
P/2005 E1 (Tubbiolo),e,4.2637,335.5683,194.0639,7.040232,0.0527623,0.37514344,315.0138,05/30.0/2021,2000,g 10.0,4.0
# From MPC 54823
P/2005 GF8 (LONEOS),e,1.1911,314.7905,284.7830,5.837264,0.0698860,0.51753591,42.6045,05/30.0/2021,2000,g 11.5,4.0
# From MPC 79019
P/2005 J1 (McNaught),e,31.7617,268.8109,338.9617,3.570371,0.1460946,0.56964623,140.3203,05/30.0/2021,2000,g 16.5,4.0
# From MPC 74246
P/2005 L1 (McNaught),e,7.7386,138.2478,149.7232,3.975617,0.1243361,0.20951246,340.5136,05/30.0/2021,2000,g  9.5,4.0
# From MPC 75706
P/2005 S2 (Skiff),e,3.1357,161.2081,229.1624,8.015033,0.0434356,0.19736895,238.8853,05/30.0/2021,2000,g  7.5,4.0
# From MPC 75706
P/2005 SB216 (LONEOS),e,24.0846,1.1947,83.3642,7.131266,0.0517552,0.46366853,272.2982,05/30.0/2021,2000,g 12.0,2.0
# From MPC 55717
P/2005 T2 (Christensen),e,8.2922,260.1596,58.8338,3.846534,0.1306471,0.41637706,54.4261,05/30.0/2021,2000,g 14.5,4.0
# From MPC 73461
P/2005 T3 (Read),e,6.2239,27.7180,6.8390,7.581983,0.0472096,0.17436990,269.9575,05/30.0/2021,2000,g  9.0,4.0
# From MPC 73461
P/2005 T4 (SWAN),e,160.2094,25.7473,41.6520,9.361239,0.0344115,0.92978305,196.8659,05/30.0/2021,2000,g 15.0,4.0
# From MPC 75706
P/2005 T5 (Broughton),e,21.3600,57.0025,304.5627,7.289600,0.0500782,0.55228526,286.0686,05/30.0/2021,2000,g 11.0,4.0
# From MPC 56954
P/2005 W3 (Kowalski),e,16.4203,210.0853,200.7246,6.328818,0.0619042,0.54335411,352.9503,05/30.0/2021,2000,g 12.0,4.0
# From MPC 75706
P/2005 Y2 (McNaught),e,19.0625,94.4309,193.9184,6.383202,0.0611148,0.47059592,13.5801,05/30.0/2021,2000,g  9.0,4.0
# From MPC 56954
P/2006 F4 (Spacewatch),e,12.4213,183.8328,30.9867,3.522474,0.1490845,0.34001914,99.3722,05/30.0/2021,2000,g 15.0,4.0
# From MPC 75707
P/2006 HR30 (Siding Spring),e,31.8307,309.9003,117.2915,7.811168,0.0451471,0.84228086,238.4770,05/30.0/2021,2000,g 11.0,4.0
# From MPC 75707
P/2006 S4 (Christensen),e,39.5314,36.0810,305.1459,6.315934,0.0620937,0.50835657,345.7438,05/30.0/2021,2000,g 11.0,4.0
# From MPC 75707
P/2007 A2 (Christensen),e,26.4877,300.9076,186.7343,6.327893,0.0619178,0.55774785,326.0539,05/30.0/2021,2000,g 13.5,4.0
# From MPC 75707
P/2007 C2 (Catalina),e,8.6382,275.5254,180.0254,6.992236,0.0533065,0.47081303,266.1110,05/30.0/2021,2000,g 10.0,4.0
# From MPC 84315
C/2007 D1 (LINEAR),e,41.5017,171.2060,340.0239,1420,0.0000184,0.99378890,0.0000,06/08.5442/2007,2000,g  3.5,4.0
# From MPC 82314
P/2007 K2 (Gibbs),e,7.6325,188.6427,347.4410,7.265458,0.0503280,0.68311289,257.2573,05/30.0/2021,2000,g 14.0,4.0
# From MPC 60925
P/2007 Q2 (Gilmore),e,10.2027,172.1600,162.7773,5.652510,0.0733402,0.67010905,13.4968,05/30.0/2021,2000,g 16.0,4.0
# From MPC 75708
P/2007 R4 (Garradd),e,20.2144,87.2140,282.5945,5.934918,0.0681682,0.67021359,346.8615,05/30.0/2021,2000,g 14.5,4.0
# From MPC 73462
P/2007 S1 (Zhao),e,5.9639,141.3716,245.6151,3.815977,0.1322195,0.33957748,294.3921,05/30.0/2021,2000,g 13.0,4.0
# From MPC 61994
P/2007 T2 (Kowalski),e,9.7484,3.3747,359.6389,3.046915,0.1853163,0.78539464,192.9248,05/30.0/2021,2000,g 18.5,4.0
# From MPC 75708
P/2008 CL94 (Lemmon),e,8.3466,33.3212,80.4270,6.162723,0.0644236,0.12048156,352.6848,05/30.0/2021,2000,g  8.0,4.0
# From MPC 75709
P/2008 L2 (Hill),e,25.8619,218.0085,141.2242,6.028389,0.0665889,0.61319273,312.6473,05/30.0/2021,2000,g 12.5,4.0
# From MPC 64114
P/2008 O3 (Boattini),e,32.2713,47.5871,341.1005,8.221276,0.0418114,0.69545808,198.7560,05/30.0/2021,2000,g 13.0,4.0
# From MPC 75709
P/2008 QP20 (LINEAR-Hill),e,7.5227,322.0725,75.5360,3.553792,0.1471181,0.49181053,328.0554,05/30.0/2021,2000,g 15.5,4.0
# From MPC 66204
P/2008 WZ96 (LINEAR),e,7.1116,56.4476,341.9275,3.487376,0.1513407,0.46987790,346.5644,05/30.0/2021,2000,g 13.5,4.0
# From MPC 75710
P/2008 Y3 (McNaught),e,38.7667,262.8026,238.2090,8.046811,0.0431786,0.44546337,196.0932,05/30.0/2021,2000,g  8.5,4.0
# From MPC 75710
P/2009 B1 (Boattini),e,22.2205,297.0896,128.8793,6.736901,0.0563656,0.63484913,255.1894,05/30.0/2021,2000,g 13.0,4.0
# From MPC 66466
C/2009 G1 (STEREO),e,108.7286,120.4431,175.4222,437.3274,0.0001078,0.99740073,0.0000,04/15.8959/2009,2000,g  9.0,4.0
# From MPC 75710
P/2009 O3 (Hill),e,16.2736,183.7029,154.4187,7.769302,0.0455125,0.68774915,199.8182,05/30.0/2021,2000,g 12.5,4.0
# From MPC 68902
P/2009 Q5 (McNaught),e,40.9834,160.2736,209.0286,7.436037,0.0486062,0.60904866,208.2780,05/30.0/2021,2000,g 10.0,4.0
# From MPC112389
P/2009 T2 (La Sagra),e,27.5633,215.8199,216.3863,7.723228,0.0459204,0.76536677,191.5702,05/30.0/2021,2000,g 14.0,4.0
# From MPC xxxxx
